K23RA6G 17.88  0.15 K24AH 135.29532  318.39102   17.60247    7.59022  0.1421884  0.22103609   2.7091138  0 E2023-X25    66   6 2005-2023 0.44 M-v 3Ek MPCLINUX   0000          2023 RG106         20231203
K23S50Z 18.60  0.15 K24AH  93.56400  178.54942  212.67735    7.47075  0.2690157  0.22786549   2.6547096  0 E2024-PG3    83   6 2001-2024 0.30 M-v 3Ek MPCLINUX   0000          2023 SZ50          20240107
K23T36F 17.54  0.15 K24AH 153.97963  244.15345   54.99051    2.75483  0.0370464  0.20363560   2.8613232  1 MPO775498    38   6 2007-2023 0.51 M-v 3Ek Veres      0000          2023 TF36          20231022
K23X15L 18.46  0.15 K24AH  81.31719  321.00389  105.47741    7.98731  0.2824929  0.22782604   2.6550160  0 E2024-P10    25   5 2014-2023 0.97 M-v 3Ek MPCLINUX   0000          2023 XL15          20231216
K24G10Z 18.14  0.15 K24AH 325.53563  207.98366   76.91307   10.08801  0.0338802  0.21953132   2.7214794  0 MPO845968    29   5 2015-2024 0.66 M-v 3Ek MPCLINUX   0000          2024 GZ10          20240508
K24R65X 17.63  0.15 K24AH 336.03912   55.32615  338.95679    9.79339  0.1594569  0.17607668   3.1525948  0 E2024-T35    34   5 2013-2024 0.92 M-v 3Ek MPCLINUX   0000          2024 RX65          20240930
K24A16X 17.55  0.15 K24AH 354.35036  232.27257  313.28321    4.68087  0.1162450  0.17612681   3.1519965  1 MPO811448    28   5 2008-2024 0.33 M-v 3Ek Veres      0000          2024 AX16          20240131
K23T23T 17.60  0.15 K24AH 134.01839  227.29601   86.81445    3.47978  0.0547116  0.19884489   2.9070985  2 MPO775456    31   5 2008-2023 0.38 M-v 3Ek MPCLINUX   0000          2023 TT23          20231019
K24E12H 17.60  0.15 K24AH 350.23230  225.98533  358.91809    9.79756  0.0557504  0.17403415   3.1772135  0 MPO840502    24   4 2015-2024 0.52 M-v 3Ek Veres      0000          2024 EH12          20240330
K24RA5O 19.22  0.15 K24AH  15.48629  217.42524  136.07516    7.16548  0.1261388  0.26928056   2.3750133  0 E2024-TI9    30   4 2016-2024 0.62 M-v 3Ek MPCLINUX   0000          2024 RO105         20241007
K23R19N 17.50  0.15 K24AH  54.00250    5.49526    2.67702   14.55643  0.0833278  0.18701691   3.0284155  1 MPO774671    25   4 2016-2023 0.46 M-v 3Ek Veres      0000          2023 RN19          20230917
K23T40L 18.94  0.15 K24AH  51.42339  157.89283  280.09977    4.13366  0.0544358  0.27554711   2.3388667  1 MPO775513    33   4 2007-2023 0.46 M-v 3Ek Veres      0000          2023 TL40          20231105
K23T49O 17.87  0.15 K24AH  97.06075  201.62502  134.80498    4.43895  0.2052527  0.17918259   3.1160579  1 MPO775543    26   4 2012-2023 0.30 M-v 3Ek MPCLINUX   0000          2023 TO49          20231109
K23T96B 17.97  0.15 K24AH  76.90723  245.79247  154.23168   12.75259  0.0883234  0.21708563   2.7418814  1 MPO775694    32   4 2007-2023 0.39 M-v 3Ek Veres      0000          2023 TB96          20231109
K23TE0L 18.61  0.15 K24AH  54.31324   70.70319  344.34528    5.94718  0.1372661  0.21733911   2.7397491  1 MPO792902    24   4 2011-2023 0.44 M-v 3Ek Veres      0000          2023 TL140         20231016
K23U73A 19.99  0.15 K24AH 113.31107   65.50934  335.94517    5.21949  0.1510713  0.31023192   2.1611176  1 MPO845958    35   4 2010-2023 0.33 M-v 3Ek Veres      0000          2023 UA73          20231208
K23X12L 17.65  0.15 K24AH  73.72536   16.69558   40.55448   17.41378  0.0997275  0.19070738   2.9892189  1 MPO793469    24   4 2007-2023 0.46 M-v 3Ek Veres      0000          2023 XL12          20231213
K24G16Z 17.51  0.15 K24AH 350.29300  251.54515   20.58382   16.11145  0.1764956  0.18202883   3.0834903  1 MPO845969    25   4 2013-2024 0.34 M-v 3Ek MPCLINUX   0000          2024 GZ16          20240601
K24S25J 17.77  0.15 K24AH  81.31501  271.03628   16.26697   20.54751  0.0733341  0.20948000   2.8078528  1 E2024-TL3    26   4 2010-2024 0.49 M-v 3Ek MPCLINUX   0000          2024 SJ25          20241009
K23U18Z 19.61  0.15 K24AH 121.83699  162.73518  247.92481   18.04478  0.0874194  0.37493958   1.9047085  1 E2023-XG7    38   3 2010-2023 0.71 M-v 3Ek MPCLINUX   0006          2023 UZ18          20231209
K23V25H 19.11  0.15 K24AH  95.61730  288.57410   94.97991   13.65686  0.2870377  0.22544090   2.6737096  1 MPO793234    26   3 2014-2024 0.35 M-v 3Ek MPCLINUX   0000          2023 VH25          20240101
K24C12A 18.95  0.15 K24AH  78.50798  148.62600  347.26793    8.89015  0.1729009  0.26681809   2.3896036  1 MPO811557    27   3 2013-2024 0.42 M-v 3Ek Veres      0000          2024 CA12          20240306
K24G12W 17.50  0.15 K24AH   4.25114  223.59836   28.22533   28.37156  0.1291441  0.18228876   3.0805584  1 MPO845968    28   3 2013-2024 0.43 M-v 3Ek MPCLINUX   0000          2024 GW12          20240601
K23M15L 17.45  0.15 K24AH  74.01137   69.41771  289.29859   19.07124  0.2121396  0.20976210   2.8053348  2 MPO782819    46   3 2005-2023 0.36 M-v 3Ek MPCLINUX   0000          2023 ML15          20231105
K23S20U 19.55  0.15 K24AH 117.94158   46.05585  318.00607    5.69081  0.1408429  0.28067274   2.3103045  2 MPO775186    30   3 2016-2023 0.56 M-v 3Ek MPCLINUX   0000          2023 SU20          20231103
K23S73M 19.36  0.15 K24AH  84.81483   57.62564  344.69355   11.09947  0.3053385  0.22945238   2.6424554  2 MPO792832    22   3 2014-2023 0.39 M-v 3Ek Veres      0000          2023 SM73          20231115
K23T34C 19.15  0.15 K24AH  85.03232  136.80360  230.23307    6.89838  0.2355047  0.21260911   2.7802347  2 MPO775491    27   3 2009-2023 0.39 M-v 3Ek Veres      0000          2023 TC34          20231017
K24E07Y 18.76  0.15 K24AH  99.49503   48.39114   65.36769    7.54171  0.1679631  0.24523805   2.5278083  2 MPO825707    26   3 2016-2024 0.56 M-v 3Ek MPCLINUX   0000          2024 EY7           20240411
K24G12F 18.30  0.15 K24AH   5.66534  348.25601  264.55253    2.31285  0.1469269  0.21721363   2.7408042  2 MPO825819    37   3 2015-2024 0.33 M-v 3Ek MPCLINUX   0000          2024 GF12          20240508
K23T84D 19.34  0.15 K24AH 116.19666  220.85369  118.26507    0.88005  0.1686108  0.23385840   2.6091601  3 E2023-XD2    26   3 2006-2023 0.33 M-v 3Ek Veres      0000          2023 TD84          20231019
K23X18B 17.49  0.15 K24AH  55.18674  341.64476   90.03294   12.61335  0.0539779  0.19036812   2.9927692  3 MPO793490    24   3 2012-2024 0.48 M-v 3Ek Veres      0000          2023 XB18          20240101
K24B15P 19.52  0.15 K24AH  45.11733  346.43990  169.32327    5.43825  0.2109562  0.23681683   2.5873847  4 MPO811490    18   3 2016-2024 0.49 M-v 3Ek Veres      0000          2024 BP15          20240215
K23S16D 18.79  0.15 K24AH  73.61167  163.26463  227.94084    9.70971  0.3093448  0.19205253   2.9752447  2 E2023-W66    52   2 2018-2023 0.40 M-v 3Ek MPCLINUX   0000          2023 SD16          20231119
K23S52X 17.54  0.15 K24AH  34.21821  175.10548  248.22304   20.31938  0.1842040  0.17286020   3.1915823  2 E2023-XF2    44   2 2012-2023 0.69 M-v 3Ek MPCLINUX   0000          2023 SX52          20231208
K23R51N 17.93  0.15 K24AH  78.41895  265.28986   87.26905    2.21718  0.2107183  0.18223685   3.0811434  3 MPO774794    42   2 2007-2023 0.46 M-v 3Ek MPCLINUX   0000          2023 RN51          20231103
K23TB5C 18.03  0.15 K24AH  83.64281  307.34157   77.57993   10.32633  0.1277530  0.20004931   2.8954185  4 E2024-PG3    33   2 2016-2023 0.93 M-v 3Ek Veres      0000          2023 TC115         20231116
K23S32G 19.37  0.15 K24AH 215.34655   64.93539  229.75239   19.95177  0.0639500  0.36986378   1.9220950  4 E2023-XF2    30   1   76 days 0.60 M-v 3Ek MPCLINUX   2006          2023 SG32          20231207
K23S32Z 18.76  0.15 K24AH 107.01269  328.09321   32.14971   15.36089  0.1577734  0.26204502   2.4185335  4 E2023-XF2    22   1   77 days 0.40 M-v 3Ek MPCLINUX   2007          2023 SZ32          20231206
K23M05H 19.23  0.15 K24AH 138.91880   30.09985  269.86278    9.62867  0.3293087  0.28189965   2.3035962  5 MPO782816    70   1  116 days 0.36 M-v 3Ek MPCLINUX   2005          2023 MH5           20231018
K23M13Y 17.67  0.15 K24AH 116.78827   13.37160  283.13528   25.22398  0.1346544  0.21783918   2.7355546  5 E2023-QD4    20   1   60 days 0.55 M-v 3Ek Veres      2000          2023 MY13          20230823
K23S14H 20.59  0.15 K24AH 108.43009  206.71510  215.53821   22.12337  0.0725038  0.41062321   1.7926977  5 MPO775159    23   1   42 days 0.63 M-v 3Ek MPCLINUX   2005          2023 SH14          20231105
K23S19E 18.86  0.15 K24AH  67.00643  163.39424  230.79270   12.48142  0.1692974  0.22456518   2.6806561  5 MPO775179    18   1   40 days 0.44 M-v 3Ek MPCLINUX   2000          2023 SE19          20231105
K23S39H 19.43  0.15 K24AH  91.78276  177.56971  213.71493    4.58286  0.1716996  0.28746957   2.2737434  5 E2023-XF2    15   1   79 days 0.39 M-v 3Ek MPCLINUX   2000          2023 SH39          20231206
K23S73U 19.06  0.15 K24AH  70.51839  132.83830  268.76497    4.21059  0.1993486  0.23126741   2.6286116  5 MPO792833    14   1   60 days 0.80 M-v 3Ek Veres      2000          2023 SU73          20231115
K23S82W 18.29  0.15 K24AH  59.09431  102.53528  279.41385    7.61258  0.1810757  0.17365046   3.1818919  5 MPO811345    10   1   21 days 0.53 M-v 3Ek Veres      2000          2023 SW82          20231017
K23T13V 18.41  0.15 K24AH  97.20082  347.68727  353.00891    6.71188  0.2376172  0.18952538   3.0016344  5 E2023-X62    40   1   59 days 0.72 M-v 3Ek MPCLINUX   2000          2023 TV13          20231204
K23V32D 18.17  0.15 K24AH 108.36932  286.90512   80.29531   18.12937  0.1787923  0.21126273   2.7920346  5 MPO793257    15   1   56 days 0.63 M-v 3Ek MPCLINUX   2000          2023 VD32          20231231
K23V34A 18.20  0.15 K24AH  49.82578  257.98185  181.39281   11.99191  0.1401587  0.18866918   3.0107087  5 MPO793262    14   1   55 days 0.61 M-v 3Ek MPCLINUX   2000          2023 VA34          20240101
K23V46A 19.71  0.15 K24AH  94.37244   74.80577  318.81253   11.40235  0.2425747  0.24411294   2.5355695  5 MPO811401    12   1   26 days 0.74 M-v 3Ek Veres      2000          2023 VA46          20231211
